{
  "type": "FeatureCollection",
  "features": [
    {
      "type": "Feature",
      "properties": {
        "norad_id": 30359,
        "name": "FENGYUN 1C DEB",
        "group": "fengyun-1c-debris",
        "lat": 6.441967439069124,
        "lon": -16.800931280008484,
        "alt_km": 1020.679312827494,
        "timestamp": "2025-12-04T07:39:36.411393+00:00",
        "meta_object_name": "FENGYUN 1C DEB",
        "meta_object_id": "1999-025ABW",
        "meta_epoch": "2025-12-02T01:25:55.604640",
        "meta_mean_motion": 13.93891973,
        "meta_eccentricity": 0.01446261,
        "meta_inclination": 101.6279,
        "meta_ra_of_asc_node": 159.0313,
        "meta_arg_of_pericenter": 8.9685,
        "meta_mean_anomaly": 351.4001,
        "meta_ephemeris_type": 0,
        "meta_classification_type": "U",
        "meta_norad_cat_id": 30359,
        "meta_element_set_no": 999,
        "meta_rev_at_epoch": 94920,
        "meta_bstar": 0.00252898,
        "meta_mean_motion_dot": 3.577e-05,
        "meta_mean_motion_ddot": 0,
        "tle_line1": "1 30359U 99025ABW 25336.05967135  .00003577  00000+0  25290-2 0  9991",
        "tle_line2": "2 30359 101.6279 159.0313 0144626   8.9685 351.4001 13.93891973949200"
      },
      "geometry": {
        "type": "Point",
        "coordinates": [
          -16.800931280008484,
          6.441967439069124
        ]
      }
    },
    {
      "type": "Feature",
      "properties": {
        "norad_id": 30360,
        "name": "FENGYUN 1C DEB",
        "group": "fengyun-1c-debris",
        "lat": -74.17999588319996,
        "lon": 80.90888776596142,
        "alt_km": 820.0595070159197,
        "timestamp": "2025-12-04T07:39:36.411402+00:00",
        "meta_object_name": "FENGYUN 1C DEB",
        "meta_object_id": "1999-025ABX",
        "meta_epoch": "2025-12-03T03:32:31.274880",
        "meta_mean_motion": 14.2638041,
        "meta_eccentricity": 0.00315786,
        "meta_inclination": 98.7669,
        "meta_ra_of_asc_node": 46.738,
        "meta_arg_of_pericenter": 173.2161,
        "meta_mean_anomaly": 217.0109,
        "meta_ephemeris_type": 0,
        "meta_classification_type": "U",
        "meta_norad_cat_id": 30360,
        "meta_element_set_no": 999,
        "meta_rev_at_epoch": 97288,
        "meta_bstar": 0.0022742098,
        "meta_mean_motion_dot": 5.455e-05,
        "meta_mean_motion_ddot": 0,
        "tle_line1": "1 30360U 99025ABX 25337.14758420  .00005455  00000+0  22742-2 0  9995",
        "tle_line2": "2 30360  98.7669  46.7380 0031578 173.2161 217.0109 14.26380410972885"
      },
      "geometry": {
        "type": "Point",
        "coordinates": [
          80.90888776596142,
          -74.17999588319996
        ]
      }
    },
    {
      "type": "Feature",
      "properties": {
        "norad_id": 30361,
        "name": "FENGYUN 1C DEB",
        "group": "fengyun-1c-debris",
        "lat": 56.82016154945538,
        "lon": 1.1083483791160513,
        "alt_km": 754.7245867734055,
        "timestamp": "2025-12-04T07:39:36.411412+00:00",
        "meta_object_name": "FENGYUN 1C DEB",
        "meta_object_id": "1999-025ABY",
        "meta_epoch": "2025-12-03T01:03:58.174848",
        "meta_mean_motion": 14.2529003,
        "meta_eccentricity": 0.00658654,
        "meta_inclination": 98.5703,
        "meta_ra_of_asc_node": 13.197,
        "meta_arg_of_pericenter": 59.104,
        "meta_mean_anomaly": 301.6594,
        "meta_ephemeris_type": 0,
        "meta_classification_type": "U",
        "meta_norad_cat_id": 30361,
        "meta_element_set_no": 999,
        "meta_rev_at_epoch": 97478,
        "meta_bstar": 0.0011670091,
        "meta_mean_motion_dot": 2.768e-05,
        "meta_mean_motion_ddot": 0,
        "tle_line1": "1 30361U 99025ABY 25337.04442332  .00002768  00000+0  11670-2 0  9999",
        "tle_line2": "2 30361  98.5703  13.1970 0065865  59.1040 301.6594 14.25290030974786"
      },
      "geometry": {
        "type": "Point",
        "coordinates": [
          1.1083483791160513,
          56.82016154945538
        ]
      }
    },
    {
      "type": "Feature",
      "properties": {
        "norad_id": 30362,
        "name": "FENGYUN 1C DEB",
        "group": "fengyun-1c-debris",
        "lat": 63.976804567014845,
        "lon": 100.10190197312374,
        "alt_km": 867.9030058772469,
        "timestamp": "2025-12-04T07:39:36.411421+00:00",
        "meta_object_name": "FENGYUN 1C DEB",
        "meta_object_id": "1999-025ABZ",
        "meta_epoch": "2025-12-03T05:36:36.199584",
        "meta_mean_motion": 14.11672676,
        "meta_eccentricity": 0.0096301,
        "meta_inclination": 99.0505,
        "meta_ra_of_asc_node": 259.9532,
        "meta_arg_of_pericenter": 9.7879,
        "meta_mean_anomaly": 350.5139,
        "meta_ephemeris_type": 0,
        "meta_classification_type": "U",
        "meta_norad_cat_id": 30362,
        "meta_element_set_no": 999,
        "meta_rev_at_epoch": 96034,
        "meta_bstar": 0.003812,
        "meta_mean_motion_dot": 7.206e-05,
        "meta_mean_motion_ddot": 0,
        "tle_line1": "1 30362U 99025ABZ 25337.23375231  .00007206  00000+0  38120-2 0  9995",
        "tle_line2": "2 30362  99.0505 259.9532 0096301   9.7879 350.5139 14.11672676960347"
      },
      "geometry": {
        "type": "Point",
        "coordinates": [
          100.10190197312374,
          63.976804567014845
        ]
      }
    },
    {
      "type": "Feature",
      "properties": {
        "norad_id": 30363,
        "name": "FENGYUN 1C DEB",
        "group": "fengyun-1c-debris",
        "lat": -33.46068956612892,
        "lon": -136.7049300755326,
        "alt_km": 892.3644571635359,
        "timestamp": "2025-12-04T07:39:36.411430+00:00",
        "meta_object_name": "FENGYUN 1C DEB",
        "meta_object_id": "1999-025ACA",
        "meta_epoch": "2025-12-03T03:32:29.233248",
        "meta_mean_motion": 14.1678675,
        "meta_eccentricity": 0.00801556,
        "meta_inclination": 99.0314,
        "meta_ra_of_asc_node": 48.1398,
        "meta_arg_of_pericenter": 66.9897,
        "meta_mean_anomaly": 293.9706,
        "meta_ephemeris_type": 0,
        "meta_classification_type": "U",
        "meta_norad_cat_id": 30363,
        "meta_element_set_no": 999,
        "meta_rev_at_epoch": 96688,
        "meta_bstar": 0.0018687848,
        "meta_mean_motion_dot": 3.816e-05,
        "meta_mean_motion_ddot": 0,
        "tle_line1": "1 30363U 99025ACA 25337.14756057  .00003816  00000+0  18688-2 0  9995",
        "tle_line2": "2 30363  99.0314  48.1398 0080155  66.9897 293.9706 14.16786750966888"
      },
      "geometry": {
        "type": "Point",
        "coordinates": [
          -136.7049300755326,
          -33.46068956612892
        ]
      }
    },
    {
      "type": "Feature",
      "properties": {
        "norad_id": 30364,
        "name": "FENGYUN 1C DEB",
        "group": "fengyun-1c-debris",
        "lat": -28.591647093088206,
        "lon": -100.17172517697054,
        "alt_km": 607.3240281815479,
        "timestamp": "2025-12-04T07:39:36.411439+00:00",
        "meta_object_name": "FENGYUN 1C DEB",
        "meta_object_id": "1999-025ACB",
        "meta_epoch": "2025-12-01T12:50:41.724960",
        "meta_mean_motion": 14.16673291,
        "meta_eccentricity": 0.03345489,
        "meta_inclination": 98.1359,
        "meta_ra_of_asc_node": 252.8044,
        "meta_arg_of_pericenter": 352.9961,
        "meta_mean_anomaly": 188.5388,
        "meta_ephemeris_type": 0,
        "meta_classification_type": "U",
        "meta_norad_cat_id": 30364,
        "meta_element_set_no": 999,
        "meta_rev_at_epoch": 95482,
        "meta_bstar": 0.0039205602,
        "meta_mean_motion_dot": 0.00013549,
        "meta_mean_motion_ddot": 0,
        "tle_line1": "1 30364U 99025ACB 25335.53520515  .00013549  00000+0  39206-2 0  9998",
        "tle_line2": "2 30364  98.1359 252.8044 0334548 352.9961 188.5388 14.16673291954829"
      },
      "geometry": {
        "type": "Point",
        "coordinates": [
          -100.17172517697054,
          -28.591647093088206
        ]
      }
    },
    {
      "type": "Feature",
      "properties": {
        "norad_id": 30365,
        "name": "FENGYUN 1C DEB",
        "group": "fengyun-1c-debris",
        "lat": 80.02398556686181,
        "lon": -147.50560868400746,
        "alt_km": 727.903134868161,
        "timestamp": "2025-12-04T07:39:36.411448+00:00",
        "meta_object_name": "FENGYUN 1C DEB",
        "meta_object_id": "1999-025ACC",
        "meta_epoch": "2025-12-03T23:00:49.912992",
        "meta_mean_motion": 14.19217218,
        "meta_eccentricity": 0.01677479,
        "meta_inclination": 98.6185,
        "meta_ra_of_asc_node": 332.5757,
        "meta_arg_of_pericenter": 136.6363,
        "meta_mean_anomaly": 280.03,
        "meta_ephemeris_type": 0,
        "meta_classification_type": "U",
        "meta_norad_cat_id": 30365,
        "meta_element_set_no": 999,
        "meta_rev_at_epoch": 97488,
        "meta_bstar": 0.00032793125,
        "meta_mean_motion_dot": 7.49e-06,
        "meta_mean_motion_ddot": 0,
        "tle_line1": "1 30365U 99025ACC 25337.95891103  .00000749  00000+0  32793-3 0  9994",
        "tle_line2": "2 30365  98.6185 332.5757 0167747 136.6363 280.0300 14.19217218974883"
      },
      "geometry": {
        "type": "Point",
        "coordinates": [
          -147.50560868400746,
          80.02398556686181
        ]
      }
    }
  ]
}